NORAD_CAT_ID,OBJECT_NAME,OBJECT_TYPE,EPOCH,MEAN_MOTION,ECCENTRICITY,INCLINATION,RA_OF_ASC_NODE,ARG_OF_PERICENTER,MEAN_ANOMALY,BSTAR,MEAN_MOTION_DOT,MEAN_MOTION_DDOT,TLE_LINE0,TLE_LINE1,TLE_LINE2,SEMIMAJOR_AXIS,PERIOD,APOGEE,PERIGEE,DECAYED
55313.0,STARLINK-5313,PAYLOAD,2024-05-31 20:48:28,14.98328023,0.0003261,69.9987,195.3561,268.8357,91.2429,-3.6935e-05,-5.34e-06,0.0,0 STARLINK-5313,1 55313U 23010AW  24152.86699181 -.00000534  00000-0 -36935-4 0  9999,2 55313  69.9987 195.3561 0003261 268.8357  91.2429 14.98328023 77751,6950.199,96.107,574.33,569.798,0.0
55313.0,STARLINK-5313,PAYLOAD,2024-06-01 12:49:48,14.98326236,0.0003265,69.9986,193.6729,268.6161,91.4624,-5.3872e-05,-7.36e-06,0.0,0 STARLINK-5313,1 55313U 23010AW  24153.53459448 -.00000736  00000-0 -53872-4 0  9997,2 55313  69.9986 193.6729 0003265 268.6161  91.4624 14.98326236 76664,6950.205,96.107,574.339,569.8,0.0
55313.0,STARLINK-5313,PAYLOAD,2024-06-02 04:51:09,14.9833131,0.0003235,69.9986,191.9896,268.9372,91.1417,2.682e-05,2.27e-06,0.0,0 STARLINK-5313,1 55313U 23010AW  24154.20218940  .00000227  00000-0  26820-4 0  9998,2 55313  69.9986 191.9896 0003235 268.9372  91.1417 14.98331310 76761,6950.189,96.107,574.302,569.805,0.0
55313.0,STARLINK-5313,PAYLOAD,2024-06-02 11:15:41,14.9833246,0.0003333,69.9986,191.3167,269.6536,90.4241,1.9777e-05,1.43e-06,0.0,0 STARLINK-5313,1 55313U 23010AW  24154.46922859  .00000143  00000-0  19777-4 0  9997,2 55313  69.9986 191.3167 0003333 269.6536  90.4241 14.98332460 77995,6950.185,96.107,574.367,569.734,0.0
55313.0,STARLINK-5313,PAYLOAD,2024-06-03 04:53:10,14.98326586,0.0003337,69.9986,189.4653,270.9525,89.1251,5.4327e-05,5.55e-06,0.0,0 STARLINK-5313,1 55313U 23010AW  24155.20359141  .00000555  00000-0  54327-4 0  9995,2 55313  69.9986 189.4653 0003337 270.9525  89.1251 14.98326586 76919,6950.203,96.107,574.388,569.749,0.0
55313.0,STARLINK-5313,PAYLOAD,2024-06-03 11:17:42,14.98328133,0.000335,69.9986,188.7919,271.5615,88.516,5.7654e-05,5.95e-06,0.0,0 STARLINK-5313,1 55313U 23010AW  24155.47063072  .00000595  00000-0  57654-4 0  9999,2 55313  69.9986 188.7919 0003350 271.5615  88.5160 14.98328133 78147,6950.199,96.107,574.392,569.735,0.0
55313.0,STARLINK-5313,PAYLOAD,2024-06-03 19:18:22,14.98330325,0.000331,69.9986,187.9506,269.4749,90.603,2.9071e-05,2.54e-06,0.0,0 STARLINK-5313,1 55313U 23010AW  24155.80442998  .00000254  00000-0  29071-4 0  9998,2 55313  69.9986 187.9506 0003310 269.4749  90.6030 14.98330325 78191,6950.192,96.107,574.357,569.756,0.0
55313.0,STARLINK-5313,PAYLOAD,2024-06-04 11:19:43,14.98333872,0.0003306,69.9986,186.2673,269.5976,90.4804,7.5429e-06,-3e-08,0.0,0 STARLINK-5313,1 55313U 23010AW  24156.47202725 -.00000003  00000-0  75429-5 0  9996,2 55313  69.9986 186.2673 0003306 269.5976  90.4804 14.98333872 77103,6950.181,96.107,574.344,569.748,0.0
55313.0,STARLINK-5313,PAYLOAD,2024-06-04 19:20:23,14.98331895,0.0003344,69.9985,185.4255,270.4886,89.589,8.5663e-06,9e-08,0.0,0 STARLINK-5313,1 55313U 23010AW  24156.80582763  .00000009  00000-0  85663-5 0  9992,2 55313  69.9985 185.4255 0003344 270.4886  89.5890 14.98331895 78346,6950.187,96.107,574.376,569.728,0.0
55313.0,STARLINK-5313,PAYLOAD,2024-06-05 11:21:44,14.98329628,0.0003344,69.9984,183.7423,270.2611,89.8165,-6.8925e-06,-1.75e-06,0.0,0 STARLINK-5313,1 55313U 23010AW  24157.47342903 -.00000175  00000-0 -68925-5 0  9994,2 55313  69.9984 183.7423 0003344 270.2611  89.8165 14.98329628 77255,6950.194,96.107,574.383,569.735,0.0
55313.0,STARLINK-5313,PAYLOAD,2024-06-05 19:22:24,14.98330239,0.0003361,69.9984,182.9005,270.3242,89.7532,-8.6799e-06,-1.97e-06,0.0,0 STARLINK-5313,1 55313U 23010AW  24157.80722840 -.00000197  00000-0 -86799-5 0  9996,2 55313  69.9984 182.9005 0003361 270.3242  89.7532 14.98330239 78496,6950.192,96.107,574.393,569.721,0.0
55313.0,STARLINK-5313,PAYLOAD,2024-06-06 11:23:45,14.98331802,0.0003375,69.9983,181.2171,269.9329,90.1443,-1.2524e-05,-2.43e-06,0.0,0 STARLINK-5313,1 55313U 23010AW  24158.47482692 -.00000243  00000-0 -12524-4 0  9994,2 55313  69.9983 181.2171 0003375 269.9329  90.1443 14.98331802 77400,6950.187,96.107,574.398,569.707,0.0
55313.0,STARLINK-5313,PAYLOAD,2024-06-07 09:49:37,14.98328606,0.0003293,69.9987,178.8605,268.7369,91.3412,3.2057e-05,2.89e-06,0.0,0 STARLINK-5313,1 55313U 23010AW  24159.40946690  .00000289  00000-0  32057-4 0  9992,2 55313  69.9987 178.8605 0003293 268.7369  91.3412 14.98328606 78732,6950.197,96.107,574.351,569.774,0.0
55313.0,STARLINK-5313,PAYLOAD,2024-06-08 05:03:14,14.98330574,0.0003344,69.9988,176.8407,269.8993,90.1783,1.0835e-05,3.6e-07,0.0,0 STARLINK-5313,1 55313U 23010AW  24160.21058566  .00000036  00000-0  10835-4 0  9999,2 55313  69.9988 176.8407 0003344 269.8993  90.1783 14.98330574 77669,6950.191,96.107,574.38,569.732,0.0
55313.0,STARLINK-5313,PAYLOAD,2024-06-08 09:51:38,14.983303,0.0003345,69.9989,176.3358,270.0118,90.0657,8.1151e-06,4e-08,0.0,0 STARLINK-5313,1 55313U 23010AW  24160.41086581  .00000004  00000-0  81151-5 0  9994,2 55313  69.9989 176.3358 0003345 270.0118  90.0657 14.98330300 78885,6950.192,96.107,574.382,569.732,0.0
55313.0,STARLINK-5313,PAYLOAD,2024-06-08 17:52:19,14.9832992,0.0003347,69.999,175.4941,270.3101,89.7675,-3.7578e-06,-1.38e-06,0.0,0 STARLINK-5313,1 55313U 23010AW  24160.74466616 -.00000138  00000-0 -37578-5 0  9995,2 55313  69.9990 175.4941 0003347 270.3101  89.7675 14.98329920 78939,6950.193,96.107,574.384,569.732,0.0
55313.0,STARLINK-5313,PAYLOAD,2024-06-09 05:05:15,14.98326007,0.0003307,69.9993,174.3158,271.538,88.54,-4.5132e-05,-6.31e-06,0.0,0 STARLINK-5313,1 55313U 23010AW  24161.21199028 -.00000631  00000-0 -45132-4 0  9990,2 55313  69.9993 174.3158 0003307 271.5380  88.5400 14.98326007 77810,6950.205,96.107,574.369,569.772,0.0
55313.0,STARLINK-5313,PAYLOAD,2024-06-09 09:53:40,14.98326851,0.000329,69.9993,173.8109,271.497,88.5812,-3.2666e-05,-4.83e-06,0.0,0 STARLINK-5313,1 55313U 23010AW  24161.41226976 -.00000483  00000-0 -32666-4 0  9998,2 55313  69.9993 173.8109 0003290 271.4970  88.5812 14.98326851 79035,6950.203,96.107,574.354,569.781,0.0
55313.0,STARLINK-5313,PAYLOAD,2024-06-09 17:54:20,14.98328889,0.0003298,69.9993,172.9693,271.2172,88.8609,-2.0668e-06,-1.18e-06,0.0,0 STARLINK-5313,1 55313U 23010AW  24161.74606791 -.00000118  00000-0 -20668-5 0  9996,2 55313  69.9993 172.9693 0003298 271.2172  88.8609 14.98328889 79088,6950.196,96.107,574.354,569.769,0.0
55313.0,STARLINK-5313,PAYLOAD,2024-06-10 05:07:16,14.98331055,0.0003292,69.9993,171.7915,269.4483,90.6299,2.5904e-05,2.16e-06,0.0,0 STARLINK-5313,1 55313U 23010AW  24162.21338536  .00000216  00000-0  25904-4 0  9992,2 55313  69.9993 171.7915 0003292 269.4483  90.6299 14.98331055 77960,6950.19,96.107,574.343,569.767,0.0
55313.0,STARLINK-5313,PAYLOAD,2024-06-10 09:55:40,14.98330938,0.0003291,69.9993,171.2865,269.6722,90.406,2.3954e-05,1.93e-06,0.0,0 STARLINK-5313,1 55313U 23010AW  24162.41366540  .00000193  00000-0  23954-4 0  9997,2 55313  69.9993 171.2865 0003291 269.6722  90.4060 14.98330938 79185,6950.19,96.107,574.342,569.768,0.0
55313.0,STARLINK-5313,PAYLOAD,2024-06-10 17:56:20,14.98330836,0.0003307,69.9993,170.4449,269.8634,90.2146,2.3947e-05,1.93e-06,0.0,0 STARLINK-5313,1 55313U 23010AW  24162.74746515  .00000193  00000-0  23947-4 0  9999,2 55313  69.9993 170.4449 0003307 269.8634  90.2146 14.98330836 79232,6950.19,96.107,574.354,569.757,0.0
55313.0,STARLINK-5313,PAYLOAD,2024-06-11 05:09:17,14.98327398,0.0003328,69.9991,169.2665,269.7032,90.3746,3.0732e-05,2.74e-06,0.0,0 STARLINK-5313,1 55313U 23010AW  24163.21478725  .00000274  00000-0  30732-4 0  9997,2 55313  69.9991 169.2665 0003328 269.7032  90.3746 14.98327398 78112,6950.201,96.107,574.379,569.753,0.0
55313.0,STARLINK-5313,PAYLOAD,2024-06-11 09:57:41,14.98328441,0.0003316,69.9991,168.7614,269.7075,90.3704,4.9318e-05,4.95e-06,0.0,0 STARLINK-5313,1 55313U 23010AW  24163.41506618  .00000495  00000-0  49318-4 0  9997,2 55313  69.9991 168.7614 0003316 269.7075  90.3704 14.98328441 79333,6950.198,96.107,574.367,569.758,0.0
55313.0,STARLINK-5313,PAYLOAD,2024-06-12 06:47:26,14.98329236,0.0003319,69.999,166.5733,269.7905,90.2874,-2.8099e-05,-4.28e-06,0.0,0 STARLINK-5313,1 55313U 23010AW  24164.28294807 -.00000428  00000-0 -28099-4 0  9998,2 55313  69.9990 166.5733 0003319 269.7905  90.2874 14.98329236 78277,6950.195,96.107,574.367,569.753,0.0
55313.0,STARLINK-5313,PAYLOAD,2024-06-12 18:00:23,14.98330317,0.0003293,69.9991,165.3949,269.8775,90.2007,-8.5288e-06,-1.95e-06,0.0,0 STARLINK-5313,1 55313U 23010AW  24164.75026686 -.00000195  00000-0 -85288-5 0  9993,2 55313  69.9991 165.3949 0003293 269.8775  90.2007 14.98330317 79531,6950.192,96.107,574.346,569.768,0.0
55313.0,STARLINK-5313,PAYLOAD,2024-06-13 10:01:43,14.98332498,0.0003321,69.999,163.7118,269.9425,90.1354,2.5656e-05,2.13e-06,0.0,0 STARLINK-5313,1 55313U 23010AW  24165.41786394  .00000213  00000-0  25656-4 0  9997,2 55313  69.9990 163.7118 0003321 269.9425  90.1354 14.98332498 78440,6950.185,96.107,574.358,569.742,0.0
55313.0,STARLINK-5313,PAYLOAD,2024-06-14 10:03:44,14.9832996,0.000332,69.999,161.1871,270.0317,90.0462,1.7576e-05,1.17e-06,0.0,0 STARLINK-5313,1 55313U 23010AW  24166.41926533  .00000117  00000-0  17576-4 0  9994,2 55313  69.9990 161.1871 0003320 270.0317  90.0462 14.98329960 79787,6950.193,96.107,574.365,569.751,0.0
55313.0,STARLINK-5313,PAYLOAD,2024-06-14 22:52:48,14.98332187,0.0003294,69.9991,159.8406,270.0416,90.0366,2.2381e-07,-9e-07,0.0,0 STARLINK-5313,1 55313U 23010AW  24166.95334406 -.00000090  00000-0  22381-6 0  9998,2 55313  69.9991 159.8406 0003294 270.0416  90.0366 14.98332187 79863,6950.186,96.107,574.341,569.762,0.0
55313.0,STARLINK-5313,PAYLOAD,2024-06-15 08:29:37,14.98333723,0.0003277,69.9991,158.8309,269.1995,90.8788,1.2775e-05,5.9e-07,0.0,0 STARLINK-5313,1 55313U 23010AW  24167.35390185  .00000059  00000-0  12775-4 0  9997,2 55313  69.9991 158.8309 0003277 269.1995  90.8788 14.98333723 79926,6950.181,96.107,574.324,569.769,0.0
